stk.v.8.0

BEGIN Ephemeris

NumberOfEphemerisPoints 11819
CoordinateSystem Custom RIC Satellite/Origin

EphemerisTimePosVel

409.000000 191.117434 -256.159124 90.459489 -0.392546 0.046005 0.059338
410.000000 191.058097 -256.551669 90.413483 -0.392421 0.046111 0.059519
411.000000 190.998578 -256.944091 90.367373 -0.392293 0.046216 0.059700
412.000000 190.938877 -257.336384 90.321157 -0.392165 0.046320 0.059882
413.000000 190.878995 -257.728549 90.274837 -0.392036 0.046425 0.060063
414.000000 190.818933 -258.120585 90.228411 -0.391908 0.046530 0.060244
415.000000 190.758689 -258.512493 90.181882 -0.391780 0.046635 0.060425
416.000000 190.698264 -258.904273 90.135247 -0.391651 0.046739 0.060606
417.000000 190.637658 -259.295924 90.088507 -0.391523 0.046844 0.060787
418.000000 190.576871 -259.687447 90.041663 -0.391395 0.046949 0.060968
419.000000 190.515903 -260.078842 89.994714 -0.391266 0.047054 0.061149
420.000000 190.454753 -260.470109 89.947660 -0.391138 0.047159 0.061331
421.000000 190.393423 -260.861247 89.900502 -0.391006 0.047263 0.061511
422.000000 190.331911 -261.252253 89.853239 -0.390874 0.047367 0.061692
423.000000 190.270220 -261.643126 89.805872 -0.390741 0.047471 0.061872
424.000000 190.208348 -262.033868 89.758401 -0.390609 0.047575 0.062053
425.000000 190.146295 -262.424477 89.710825 -0.390477 0.047680 0.062233
426.000000 190.084062 -262.814954 89.663146 -0.390345 0.047784 0.062414
427.000000 190.021649 -263.205299 89.615362 -0.390213 0.047888 0.062594
428.000000 189.959055 -263.595511 89.567474 -0.390080 0.047992 0.062774
429.000000 189.896280 -263.985592 89.519481 -0.389948 0.048097 0.062955
430.000000 189.833325 -264.375540 89.471385 -0.389816 0.048201 0.063135
431.000000 189.770190 -264.765356 89.423184 -0.389680 0.048304 0.063315
432.000000 189.706875 -265.155035 89.374879 -0.389544 0.048408 0.063495
433.000000 189.643379 -265.544579 89.326471 -0.389407 0.048512 0.063675
434.000000 189.579704 -265.933987 89.277959 -0.389271 0.048615 0.063855
435.000000 189.515850 -266.323258 89.229344 -0.389135 0.048719 0.064035
436.000000 189.451815 -266.712393 89.180625 -0.388999 0.048823 0.064215
437.000000 189.387600 -267.101392 89.131802 -0.388863 0.048926 0.064394
438.000000 189.323206 -267.490255 89.082875 -0.388727 0.049030 0.064574
439.000000 189.258632 -267.878982 89.033845 -0.388591 0.049134 0.064754
440.000000 189.193878 -268.267573 88.984711 -0.388455 0.049237 0.064934
441.000000 189.128944 -268.656028 88.935474 -0.388315 0.049341 0.065113
442.000000 189.063831 -269.044342 88.886133 -0.388175 0.049444 0.065292
443.000000 188.998538 -269.432517 88.836690 -0.388035 0.049547 0.065471
444.000000 188.933067 -269.820552 88.787143 -0.387895 0.049650 0.065651
445.000000 188.867416 -270.208446 88.737493 -0.387755 0.049753 0.065830
446.000000 188.801586 -270.596201 88.687740 -0.387615 0.049856 0.066009
447.000000 188.735578 -270.983815 88.637884 -0.387475 0.049959 0.066188
448.000000 188.669389 -271.371290 88.587925 -0.387335 0.050062 0.066367
449.000000 188.603022 -271.758625 88.537863 -0.387195 0.050165 0.066546
450.000000 188.536476 -272.145819 88.487697 -0.387055 0.050268 0.066726
451.000000 188.469750 -272.532874 88.437429 -0.386911 0.050371 0.066904
452.000000 188.402846 -272.919785 88.387058 -0.386767 0.050473 0.067083
453.000000 188.335763 -273.306552 88.336584 -0.386623 0.050576 0.067261
454.000000 188.268502 -273.693175 88.286009 -0.386479 0.050678 0.067440
455.000000 188.201063 -274.079654 88.235330 -0.386335 0.050781 0.067618
456.000000 188.133445 -274.465989 88.184549 -0.386191 0.050883 0.067797
457.000000 188.065648 -274.852181 88.133666 -0.386048 0.050986 0.067975
458.000000 187.997673 -275.238229 88.082680 -0.385904 0.051089 0.068153
459.000000 187.929519 -275.624132 88.031591 -0.385760 0.051191 0.068332
460.000000 187.861188 -276.009892 87.980400 -0.385616 0.051294 0.068510
461.000000 187.792677 -276.395508 87.929106 -0.385468 0.051395 0.068688
462.000000 187.723989 -276.780977 87.877711 -0.385321 0.051497 0.068866
463.000000 187.655123 -277.166297 87.826214 -0.385173 0.051599 0.069044
464.000000 187.586079 -277.551470 87.774614 -0.385025 0.051701 0.069222
465.000000 187.516858 -277.936495 87.722913 -0.384877 0.051803 0.069399
466.000000 187.447458 -278.321373 87.671110 -0.384730 0.051905 0.069577
467.000000 187.377881 -278.706103 87.619205 -0.384582 0.052007 0.069755
468.000000 187.308126 -279.090685 87.567198 -0.384434 0.052109 0.069933
469.000000 187.238194 -279.475119 87.515089 -0.384287 0.052211 0.070110
470.000000 187.168083 -279.859406 87.462879 -0.384139 0.052313 0.070288
471.000000 187.097795 -280.243545 87.410566 -0.383987 0.052414 0.070465
472.000000 187.027330 -280.627532 87.358152 -0.383836 0.052515 0.070642
473.000000 186.956688 -281.011368 87.305637 -0.383684 0.052617 0.070819
474.000000 186.885869 -281.395052 87.253020 -0.383533 0.052718 0.070996
475.000000 186.814873 -281.778585 87.200302 -0.383381 0.052819 0.071173
476.000000 186.743699 -282.161966 87.147483 -0.383230 0.052921 0.071350
477.000000 186.672349 -282.545196 87.094562 -0.383078 0.053022 0.071527
478.000000 186.600822 -282.928274 87.041541 -0.382927 0.053123 0.071704
479.000000 186.529117 -283.311201 86.988417 -0.382775 0.053224 0.071881
480.000000 186.457236 -283.693976 86.935193 -0.382624 0.053326 0.072058
481.000000 186.385177 -284.076599 86.881867 -0.382468 0.053426 0.072235
482.000000 186.312943 -284.459068 86.828441 -0.382313 0.053527 0.072411
483.000000 186.240531 -284.841380 86.774914 -0.382157 0.053628 0.072587
484.000000 186.167944 -285.223538 86.721286 -0.382002 0.053728 0.072764
485.000000 186.095181 -285.605540 86.667557 -0.381847 0.053829 0.072940
486.000000 186.022241 -285.987387 86.613728 -0.381691 0.053930 0.073116
487.000000 185.949125 -286.369078 86.559798 -0.381536 0.054031 0.073292
488.000000 185.875832 -286.750614 86.505768 -0.381381 0.054131 0.073469
489.000000 185.802364 -287.131995 86.451637 -0.381225 0.054232 0.073645
490.000000 185.728719 -287.513220 86.397405 -0.381070 0.054333 0.073821
491.000000 185.654897 -287.894290 86.343072 -0.380911 0.054433 0.073997
492.000000 185.580901 -288.275201 86.288639 -0.380752 0.054533 0.074172
493.000000 185.506728 -288.655952 86.234107 -0.380592 0.054633 0.074348
494.000000 185.432381 -289.036545 86.179474 -0.380433 0.054733 0.074523
495.000000 185.357857 -289.416978 86.124741 -0.380274 0.054833 0.074699
496.000000 185.283159 -289.797252 86.069908 -0.380115 0.054933 0.074874
497.000000 185.208284 -290.177367 86.014975 -0.379956 0.055033 0.075050
498.000000 185.133235 -290.557323 85.959942 -0.379797 0.055133 0.075225
499.000000 185.058009 -290.937120 85.904809 -0.379637 0.055233 0.075401
500.000000 184.982609 -291.316757 85.849576 -0.379478 0.055333 0.075576
501.000000 184.907032 -291.696235 85.794243 -0.379315 0.055433 0.075751
502.000000 184.831281 -292.075551 85.738810 -0.379152 0.055532 0.075926
503.000000 184.755356 -292.454703 85.683278 -0.378990 0.055631 0.076100
504.000000 184.679255 -292.833693 85.627647 -0.378827 0.055731 0.076275
505.000000 184.602980 -293.212519 85.571916 -0.378664 0.055830 0.076450
506.000000 184.526530 -293.591183 85.516086 -0.378501 0.055930 0.076624
507.000000 184.449906 -293.969684 85.460156 -0.378338 0.056029 0.076799
508.000000 184.373107 -294.348021 85.404127 -0.378175 0.056128 0.076974
509.000000 184.296133 -294.726196 85.347999 -0.378012 0.056228 0.077149
510.000000 184.218984 -295.104208 85.291771 -0.377849 0.056327 0.077323
511.000000 184.141661 -295.482057 85.235444 -0.377682 0.056426 0.077497
512.000000 184.064164 -295.859739 85.179018 -0.377515 0.056525 0.077671
513.000000 183.986493 -296.237255 85.122493 -0.377349 0.056624 0.077845
514.000000 183.908648 -296.614603 85.065869 -0.377182 0.056722 0.078019
515.000000 183.830629 -296.991785 85.009147 -0.377015 0.056821 0.078193
516.000000 183.752436 -297.368801 84.952326 -0.376849 0.056920 0.078367
517.000000 183.674069 -297.745649 84.895406 -0.376682 0.057019 0.078541
518.000000 183.595529 -298.122331 84.838387 -0.376515 0.057117 0.078714
519.000000 183.516814 -298.498846 84.781270 -0.376349 0.057216 0.078888
520.000000 183.437926 -298.875195 84.724054 -0.376182 0.057315 0.079062
521.000000 183.358864 -299.251377 84.666739 -0.376011 0.057413 0.079235
522.000000 183.279629 -299.627388 84.609326 -0.375841 0.057511 0.079408
523.000000 183.200220 -300.003229 84.551815 -0.375670 0.057609 0.079581
524.000000 183.120639 -300.378899 84.494206 -0.375500 0.057707 0.079754
525.000000 183.040885 -300.754399 84.436499 -0.375330 0.057805 0.079927
526.000000 182.960957 -301.129729 84.378694 -0.375159 0.057903 0.080100
527.000000 182.880857 -301.504888 84.320790 -0.374989 0.058001 0.080274
528.000000 182.800583 -301.879877 84.262789 -0.374818 0.058100 0.080447
529.000000 182.720137 -302.254695 84.204689 -0.374648 0.058198 0.080620
530.000000 182.639517 -302.629342 84.146491 -0.374477 0.058296 0.080793
531.000000 182.558724 -303.003820 84.088196 -0.374303 0.058393 0.080965
532.000000 182.477759 -303.378123 84.029802 -0.374129 0.058491 0.081137
533.000000 182.396622 -303.752251 83.971312 -0.373955 0.058588 0.081309
534.000000 182.315313 -304.126206 83.912724 -0.373780 0.058685 0.081481
535.000000 182.233832 -304.499986 83.854038 -0.373606 0.058783 0.081654
536.000000 182.152178 -304.873593 83.795256 -0.373432 0.058880 0.081826
537.000000 182.070352 -305.247025 83.736375 -0.373258 0.058978 0.081998
538.000000 181.988354 -305.620283 83.677398 -0.373084 0.059075 0.082170
539.000000 181.906184 -305.993366 83.618322 -0.372909 0.059172 0.082342
540.000000 181.823841 -306.366276 83.559150 -0.372735 0.059270 0.082515
541.000000 181.741327 -306.739011 83.499880 -0.372557 0.059367 0.082686
542.000000 181.658641 -307.111568 83.440513 -0.372379 0.059463 0.082857
543.000000 181.575784 -307.483948 83.381050 -0.372202 0.059560 0.083029
544.000000 181.492755 -307.856150 83.321490 -0.372024 0.059657 0.083200
END Ephemeris